{
  "id": 672177489,
  "type": "Feature",
  "properties": {
    "addr:city":"Marion",
    "addr:full":"8 Spring St Marion, Ma 02738",
    "addr:house_number":"8",
    "addr:housenumber":"8",
    "addr:phone":"+1 508-748-2098",
    "addr:postcode":"02738",
    "addr:road":"Spring St",
    "addr:state":"MA",
    "addr:street":"Spring St",
    "edtf:cessation":"uuuu",
    "edtf:inception":"uuuu",
    "geom:area":0.0,
    "geom:bbox":"-70.76722,41.70615,-70.76722,41.70615",
    "geom:latitude":41.70615,
    "geom:longitude":-70.76722,
    "iso:country":"US",
    "mz:hierarchy_label":1,
    "mz:is_current":1,
    "sg:address":"8 Spring St",
    "sg:city":"Marion",
    "sg:classifiers":[
        {
            "category":"Museum",
            "subcategory":"",
            "type":"Entertainment"
        }
    ],
    "sg:owner":"simplegeo",
    "sg:phone":"+1 508 748 2098",
    "sg:postcode":"02738",
    "sg:province":"MA",
    "src:geom":"mudf",
    "wof:airports":[
        102529963
    ],
    "wof:belongsto":[
        420523877
    ],
    "wof:breaches":[],
    "wof:concordances":{
        "mudf:mid":8402500650,
        "sg:id":"SG_3cPsVUMUChvUJOeV1plCZm_41.702837_-70.766689@1294127905"
    },
    "wof:country":"US",
    "wof:created":1461713065,
    "wof:geomhash":"a2d90f15be61d2476989902752cf3cac",
    "wof:hierarchy":[],
    "wof:id":672177489,
    "wof:lastmodified":1534187491,
    "wof:name":"Marion Natural History Museum",
    "wof:parent_id":420523877,
    "wof:placetype":"venue",
    "wof:repo":"whosonfirst-data-venue-us-ma",
    "wof:superseded_by":[],
    "wof:supersedes":[],
    "wof:tags":[]
},
  "bbox": [
    -70.76722,
    41.70615,
    -70.76722,
    41.70615
],
  "geometry": {"coordinates":[-70.76721999999999,41.70615],"type":"Point"}
}